[{"name":"CSS (TIANHE)","l1":"1 48274U 21035A   26183.07469613  .00005862  00000+0  70552-4 0  9995","l2":"2 48274  41.4669 231.3605 0008782 197.5526 162.5011 15.61404719295490","cat":"stations"},{"name":"STARLINK-2342","l1":"1 47883U 21021Z   26183.75002315  .00233963  00000+0  87036-3 0  9991","l2":"2 47883  53.1528  69.7478 0004875 229.4103  55.6936 15.86866826  6008","cat":"starlink"},{"name":"ICEYE-X6","l1":"1 46497U 20068M   26183.75365759  .00003001  00000+0  21847-3 0  9991","l2":"2 46497  98.0967 178.1703 0008259  47.3537 312.8383 15.04603757315578","cat":"science"},{"name":"NETSAT-4","l1":"1 46504U 20068U   26183.61299830  .00017984  00000+0  39116-3 0  9994","l2":"2 46504  97.8600 193.0981 0003447 250.0471 110.0405 15.44380953318150","cat":"other"},{"name":"NETSAT-3","l1":"1 46505U 20068V   26183.76068933  .00020196  00000+0  45631-3 0  9997","l2":"2 46505  97.8650 191.4550 0002892 277.6321  82.4597 15.43224400318081","cat":"other"},{"name":"NETSAT-1","l1":"1 46506U 20068W   26183.26102793  .00013631  00000+0  40391-3 0  9990","l2":"2 46506  97.8745 185.0671 0003139 337.8079  22.3027 15.34987582317610","cat":"other"},{"name":"NETSAT-2","l1":"1 46507U 20068X   26183.50164693  .00024138  00000+0  48478-3 0  9993","l2":"2 46507  97.8610 192.9295 0001408 305.0329  55.0787 15.46666067318109","cat":"other"},{"name":"TIANQI-6","l1":"1 46810U 20076D   26183.70427537  .00004215  00000+0  27499-3 0  9994","l2":"2 46810  35.0001 313.2261 0010918 304.6889  55.2792 15.07288577310920","cat":"other"},{"name":"KSM1-C","l1":"1 46906U 20081B   26183.78873084  .00010230  00000+0  38008-3 0  9998","l2":"2 46906  36.8968 322.6075 0003023 333.4906  26.5688 15.27005352311558","cat":"other"},{"name":"KSM1-D","l1":"1 46907U 20081C   26183.74582906  .00009010  00000+0  35667-3 0  9997","l2":"2 46907  36.8982 332.1835 0003556   6.6953 353.3842 15.24951057311470","cat":"other"},{"name":"KSM1-A","l1":"1 46912U 20081H   26183.73459856  .00009720  00000+0  37020-3 0  9992","l2":"2 46912  36.8979 325.4534 0002092  63.3041 296.7922 15.26209523311559","cat":"other"},{"name":"R2","l1":"1 46913U 20081J   26183.76147227  .00009224  00000+0  35719-3 0  9994","l2":"2 46913  36.8974 325.3521 0007013  50.2753 309.8613 15.25661378314367","cat":"other"},{"name":"KSM1-B","l1":"1 46914U 20081K   26183.75146366  .00009067  00000+0  36116-3 0  9994","l2":"2 46914  36.9037 332.7911 0004725  38.1575 321.9508 15.24738218314565","cat":"other"},{"name":"GONETS-M 20","l1":"1 47227U 20091A   26183.70291334  .00000065  00000+0  39575-3 0  9995","l2":"2 47227  82.5061 292.7911 0021849 144.8908 215.3617 12.42894116253008","cat":"communications"},{"name":"GONETS-M 21","l1":"1 47228U 20091B   26183.75734836  .00000070  00000+0  43474-3 0  9999","l2":"2 47228  82.4984 291.4547 0015483 157.5769 202.5991 12.42887299253003","cat":"communications"},{"name":"GONETS-M 22","l1":"1 47229U 20091C   26183.73038101  .00000106  00000+0  69048-3 0  9995","l2":"2 47229  82.5042 292.3773 0022764 140.4131 219.8616 12.42893502252957","cat":"communications"},{"name":"CUBEL","l1":"1 47448U 21006AM  26183.61164751  .00021285  00000+0  50383-3 0  9996","l2":"2 47448  97.2317 234.0538 0007995 117.8456 242.3602 15.41774759302133","cat":"other"},{"name":"ARKTIKA-M 1","l1":"1 47719U 21016A   26180.95192977 -.00000281  00000+0  00000+0 0  9994","l2":"2 47719  63.2520  55.7907 7292817 269.9910  14.5481  2.00617895 39040","cat":"other"},{"name":"GRUS-1B","l1":"1 47934U 21022C   26183.79924887  .00001118  00000+0  97498-4 0  9999","l2":"2 47934  97.5353  66.4801 0014732 266.2916  93.6622 14.98749401288233","cat":"other"},{"name":"UNISAT-7","l1":"1 47945U 21022P   26183.68229954  .00015566  00000+0  38003-3 0  9990","l2":"2 47945  97.3876  88.7712 0009632  31.9943 328.1887 15.40894084292242","cat":"other"},{"name":"GLOBAL-9","l1":"1 47971U 21023G   26183.42917924  .00021919  00000+0  42813-3 0  9996","l2":"2 47971  44.9791 164.8208 0002858  57.3580 302.7586 15.47147002297307","cat":"other"},{"name":"AII-BRAVO","l1":"1 48270U 21034C   26183.46132845  .00004339  00000+0  32178-3 0  9996","l2":"2 48270  97.5604 238.0255 0005196 195.2559 164.8511 15.03590264281918","cat":"other"},{"name":"TYVAK-182A","l1":"1 48271U 21034D   26183.60973566  .00005330  00000+0  36675-3 0  9994","l2":"2 48271  97.5712 242.2601 0004075 277.5430  82.5334 15.06307945282159","cat":"other"},{"name":"TYVAK-0130","l1":"1 48606U 21041BF  26183.74659667  .00007896  00000+0  29927-3 0  9993","l2":"2 48606  52.9974 313.8162 0008873 214.1366 145.9062 15.27794503282760","cat":"other"},{"name":"HAIYANG-2D","l1":"1 48621U 21043A   26183.76358949 -.00000248  00000+0 -15149-3 0  9990","l2":"2 48621  65.9992 265.9202 0011534 267.1753  92.7995 13.83371592258709","cat":"other"},{"name":"2021-050D","l1":"1 48843U 21050D   26183.18040490  .00004655  00000+0  19807-3 0  9998","l2":"2 48843  97.3338 258.8750 0005120 194.5360 165.5731 15.23478686281248","cat":"other"},{"name":"TYVAK-0173","l1":"1 48892U 21059P   26183.45798323  .00001962  00000+0  25156-3 0  9998","l2":"2 48892  96.0080 256.0189 0008414 349.8218  10.2828 14.81940378270509","cat":"other"},{"name":"MANDRAKE 2 ABLE","l1":"1 48907U 21059AE  26183.48674765  .00024123  00000+0  35300-3 0  9997","l2":"2 48907  97.7027  14.4435 0003449 296.5818  63.5082 15.55597326279507","cat":"other"},{"name":"MANDRAKE 2 BAKER","l1":"1 48908U 21059AF  26183.43686891  .00031097  00000+0  38041-3 0  9999","l2":"2 48908  97.6992  17.3697 0002116 287.6844  72.4181 15.60353511279679","cat":"other"}]