OBJECT_NAME,OBJECT_ID,EPOCH,MEAN_MOTION,ECCENTRICITY,INCLINATION,RA_OF_ASC_NODE,ARG_OF_PERICENTER,MEAN_ANOMALY,EPHEMERIS_TYPE,CLASSIFICATION_TYPE,NORAD_CAT_ID,ELEMENT_SET_NO,REV_AT_EPOCH,BSTAR,MEAN_MOTION_DOT,MEAN_MOTION_DDOT
ICEYE-X6,2020-068M,2026-07-02T18:05:16.015776,15.04603757,.0008259,98.0967,178.1703,47.3537,312.8383,0,U,46497,999,31557,.21847E-3,.3001E-4,0
NETSAT-4,2020-068U,2026-07-02T14:42:43.053120,15.44380953,.0003447,97.8600,193.0981,250.0471,110.0405,0,U,46504,999,31815,.39116E-3,.17984E-3,0
NETSAT-3,2020-068V,2026-07-02T18:15:23.558112,15.43224400,.0002892,97.8650,191.4550,277.6321,82.4597,0,U,46505,999,31808,.45631E-3,.20196E-3,0
NETSAT-1,2020-068W,2026-07-02T06:15:52.813152,15.34987582,.0003139,97.8745,185.0671,337.8079,22.3027,0,U,46506,999,31761,.40391E-3,.13631E-3,0
NETSAT-2,2020-068X,2026-07-02T12:02:22.294752,15.46666067,.0001408,97.8610,192.9295,305.0329,55.0787,0,U,46507,999,31810,.48478E-3,.24138E-3,0
TIANQI-6,2020-076D,2026-07-02T16:54:09.391968,15.07288577,.0010918,35.0001,313.2261,304.6889,55.2792,0,U,46810,999,31092,.27499E-3,.4215E-4,0
KSM1-C,2020-081B,2026-07-02T18:55:46.344576,15.27005352,.0003023,36.8968,322.6075,333.4906,26.5688,0,U,46906,999,31155,.38008E-3,.1023E-3,0
KSM1-D,2020-081C,2026-07-02T17:53:59.630784,15.24951057,.0003556,36.8982,332.1835,6.6953,353.3842,0,U,46907,999,31147,.35667E-3,.901E-4,0
KSM1-A,2020-081H,2026-07-02T17:37:49.315584,15.26209523,.0002092,36.8979,325.4534,63.3041,296.7922,0,U,46912,999,31155,.3702E-3,.972E-4,0
R2,2020-081J,2026-07-02T18:16:31.204128,15.25661378,.0007013,36.8974,325.3521,50.2753,309.8613,0,U,46913,999,31436,.35719E-3,.9224E-4,0
KSM1-B,2020-081K,2026-07-02T18:02:06.460224,15.24738218,.0004725,36.9037,332.7911,38.1575,321.9508,0,U,46914,999,31456,.36116E-3,.9067E-4,0
GONETS-M 20,2020-091A,2026-07-02T16:52:11.712576,12.42894116,.0021849,82.5061,292.7911,144.8908,215.3617,0,U,47227,999,25300,.39575E-3,.65E-6,0
GONETS-M 21,2020-091B,2026-07-02T18:10:34.898304,12.42887299,.0015483,82.4984,291.4547,157.5769,202.5991,0,U,47228,999,25300,.43474E-3,.7E-6,0
GONETS-M 22,2020-091C,2026-07-02T17:31:44.919264,12.42893502,.0022764,82.5042,292.3773,140.4131,219.8616,0,U,47229,999,25295,.69048E-3,.106E-5,0
CUBEL,2021-006AM,2026-07-02T14:40:46.344864,15.41774759,.0007995,97.2317,234.0538,117.8456,242.3602,0,U,47448,999,30213,.50383E-3,.21285E-3,0
ARKTIKA-M 1,2021-016A,2026-06-29T22:50:46.732128,2.00617895,.72928178,63.2520,55.7907,269.9910,14.5481,0,U,47719,999,3904,0,-.281E-5,0
STARLINK-2342,2021-021Z,2026-07-02T18:00:02.000160,15.86866826,.0004875,53.1528,69.7478,229.4103,55.6936,0,U,47883,999,600,.87036E-3,.233963E-2,0
GRUS-1B,2021-022C,2026-07-02T19:10:55.102368,14.98749401,.0014732,97.5353,66.4801,266.2916,93.6622,0,U,47934,999,28823,.97498E-4,.1118E-4,0
UNISAT-7,2021-022P,2026-07-02T16:22:30.680256,15.40894084,.0009632,97.3876,88.7712,31.9943,328.1887,0,U,47945,999,29224,.38003E-3,.15566E-3,0
GLOBAL-9,2021-023G,2026-07-02T10:18:01.086336,15.47147002,.0002858,44.9791,164.8208,57.3580,302.7586,0,U,47971,999,29730,.42813E-3,.21919E-3,0
AII-BRAVO,2021-034C,2026-07-02T11:04:18.778080,15.03590264,.0005196,97.5604,238.0255,195.2559,164.8511,0,U,48270,999,28191,.32178E-3,.4339E-4,0
TYVAK-182A,2021-034D,2026-07-02T14:38:01.161024,15.06307945,.0004075,97.5712,242.2601,277.5430,82.5334,0,U,48271,999,28215,.36675E-3,.533E-4,0
CSS (TIANHE),2021-035A,2026-07-02T01:47:33.745632,15.61404719,.00087824,41.4669,231.3605,197.5526,162.5011,0,U,48274,999,29549,.70551523E-4,.5862E-4,0
TYVAK-0130,2021-041BF,2026-07-02T17:55:05.952288,15.27794503,.0008873,52.9974,313.8162,214.1366,145.9062,0,U,48606,999,28276,.29927E-3,.7896E-4,0
HAIYANG-2D,2021-043A,2026-07-02T18:19:34.131936,13.83371592,.0011534,65.9992,265.9202,267.1753,92.7995,0,U,48621,999,25870,-.15149E-3,-.248E-5,0
2021-050D,2021-050D,2026-07-02T04:19:46.983360,15.23478686,.00051207,97.3338,258.8750,194.5360,165.5731,0,U,48843,999,28124,.19806639E-3,.4655E-4,0
TYVAK-0173,2021-059P,2026-07-02T10:59:29.751072,14.81940378,.0008414,96.0080,256.0189,349.8218,10.2828,0,U,48892,999,27050,.25156E-3,.1962E-4,0
MANDRAKE 2 ABLE,2021-059AE,2026-07-02T11:40:54.996960,15.55597326,.0003449,97.7027,14.4435,296.5818,63.5082,0,U,48907,999,27950,.353E-3,.24123E-3,0
MANDRAKE 2 BAKER,2021-059AF,2026-07-02T10:29:05.473824,15.60353511,.0002116,97.6992,17.3697,287.6844,72.4181,0,U,48908,999,27967,.38041E-3,.31097E-3,0
